[
    {
        "Altitude(m)": 604983.0530674547,
        "Argument of Periapsis(deg)": 0.0,
        "Eccentricity": 0.0,
        "Inclination(deg)": 60.0,
        "Latitude(deg)": -0.09272993156943772,
        "Longitude(deg)": -114.91608370705538,
        "Mean Anomaly(deg)": 180.00000000000003,
        "RAAN(deg)": 165.0,
        "Satellite Name": "Test1 737",
        "Satellite Number": 737,
        "Semi-Major Axis(m)": 6980739.136638005,
        "Time(s)": 0
    },
    {
        "Altitude(m)": 605055.3331030351,
        "Argument of Periapsis(deg)": 0.00010418945913296404,
        "Eccentricity": 0.0,
        "Inclination(deg)": 60.0,
        "Latitude(deg)": -0.6331401210516217,
        "Longitude(deg)": -114.64795942138667,
        "Mean Anomaly(deg)": 180.62010614546185,
        "RAAN(deg)": 164.99957995086024,
        "Satellite Name": "Test1 737",
        "Satellite Number": 737,
        "Semi-Major Axis(m)": 6980739.136638005,
        "Time(s)": 10
    }
]